MERAH PUTIH 2           
1 58995U 24035A   26073.64103568 -.00000359  00000+0  00000+0 0  9997
2 58995   0.0096 191.9298 0001015 191.0594 132.9837  1.00272789  7644
TJS-11                  
1 59020U 24037A   26072.76336410 -.00000367  00000+0  00000+0 0  9994
2 59020   4.3276 325.8917 0005976  51.6413 188.9982  1.00269908  7627
HULIANWAN GAOGUI-01 (H*)
1 59069U 24040A   26073.28987698  .00000155  00000+0  00000+0 0  9993
2 59069   0.0637 319.3468 0004128  50.9760 299.6082  1.00273763  6374
EUTELSAT 36D            
1 59346U 24059A   26073.57556882  .00000155  00000+0  00000+0 0  9990
2 59346   0.0102 186.6351 0000262 284.5204 304.0787  1.00271610  7191
PAKSAT-MM1              
1 59915U 24104A   26071.29395191  .00000154  00000+0  00000+0 0  9993
2 59915   0.0097 158.9645 0002394 191.0481 323.8856  1.00272770  6554
ASTRA 1P (SES-24)       
1 60086U 24115A   26071.38933580  .00000120  00000+0  00000+0 0  9999
2 60086   0.0525 348.7446 0004591 336.6618   3.9688  1.00269354  6226
GOES 19                 
1 60133U 24119A   26073.55355538 -.00000249  00000+0  00000+0 0  9991
2 60133   0.0399 331.2250 0001104  70.9444 254.0878  1.00271909  6016
ZHONGXING-3A            
1 60179U 24122A   26068.59684081 -.00000311  00000+0  00000+0 0  9991
2 60179   0.0034  91.8519 0002372 339.1453  52.6833  1.00269222  6318
TURKSAT 6A              
1 60233U 24127A   26073.57678215  .00000145  00000+0  00000+0 0  9997
2 60233   0.0380 214.5135 0001994  98.8249 108.4721  1.00272504  6067
HULIANWAN GAOGUI-02 (H*)
1 60327U 24135A   26071.95865315 -.00000173  00000+0  00000+0 0  9991
2 60327   0.0414 351.2013 0007890 356.2626 321.4127  1.00270018  6531
ZHONGXING-4A            
1 60606U 24151A   26073.59194888 -.00000365  00000+0  00000+0 0  9994
2 60606   1.5605 271.8284 0001375 102.3133 129.3651  1.00270484  5804
HULIANWAN GAOGUI-03 (H*)
1 61503U 24181A   26072.79400200 -.00000241  00000+0  00000+0 0  9996
2 61503   0.0425 356.0104 0000703 104.1382 279.9753  1.00271087  5863
DSN-3 (KIRAMEKI-3)      
1 61733U 24198A   26073.52573525 -.00000251  00000+0  00000+0 0  9993
2 61733   0.0211 241.3339 0001088  93.6552 170.4705  1.00271558  4971
KOREASAT 6A             
1 61910U 24206A   26073.59151554 -.00000363  00000+0  00000+0 0  9995
2 61910   0.0107 160.7787 0000612 198.8377 141.5454  1.00272407  4893
OPTUS-X (ADS-01)        
1 62006U 24212A   26073.59948891 -.00000144  00000+0  00000+0 0  9994
2 62006   0.0359 267.5719 0001035 112.6501 164.2301  1.00271826  4812
GSAT-N2 (GSAT-20)       
1 62028U 24214A   26073.58198218 -.00000020  00000+0  00000+0 0  9992
2 62028   0.0612 261.6784 0000529 289.8069 258.2738  1.00269180  4940
SXM-9                   
1 62259U 24234A   26073.05240931 -.00000206  00000+0  00000+0 0  9998
2 62259   0.0099 213.4738 0003988  93.2336 158.6682  1.00271617  4629
