[{"OBJECT_NAME":"MERAH PUTIH 2","OBJECT_ID":"2024-035A","EPOCH":"2026-03-14T15:23:05.482752","MEAN_MOTION":1.00272789,"ECCENTRICITY":0.00010152,"INCLINATION":0.0096,"RA_OF_ASC_NODE":191.9298,"ARG_OF_PERICENTER":191.0594,"MEAN_ANOMALY":132.9837,"EPHEMERIS_TYPE":0,"CLASSIFICATION_TYPE":"U","NORAD_CAT_ID":58995,"ELEMENT_SET_NO":999,"REV_AT_EPOCH":764,"BSTAR":0,"MEAN_MOTION_DOT":-3.59e-6,"MEAN_MOTION_DDOT":0},{"OBJECT_NAME":"TJS-11","OBJECT_ID":"2024-037A","EPOCH":"2026-03-13T18:19:14.658240","MEAN_MOTION":1.00269908,"ECCENTRICITY":0.0005976,"INCLINATION":4.3276,"RA_OF_ASC_NODE":325.8917,"ARG_OF_PERICENTER":51.6413,"MEAN_ANOMALY":188.9982,"EPHEMERIS_TYPE":0,"CLASSIFICATION_TYPE":"U","NORAD_CAT_ID":59020,"ELEMENT_SET_NO":999,"REV_AT_EPOCH":762,"BSTAR":0,"MEAN_MOTION_DOT":-3.67e-6,"MEAN_MOTION_DDOT":0},{"OBJECT_NAME":"HULIANWAN GAOGUI-01 (HG-01)","OBJECT_ID":"2024-040A","EPOCH":"2026-03-14T06:57:25.371072","MEAN_MOTION":1.00273763,"ECCENTRICITY":0.00041289,"INCLINATION":0.0637,"RA_OF_ASC_NODE":319.3468,"ARG_OF_PERICENTER":50.976,"MEAN_ANOMALY":299.6082,"EPHEMERIS_TYPE":0,"CLASSIFICATION_TYPE":"U","NORAD_CAT_ID":59069,"ELEMENT_SET_NO":999,"REV_AT_EPOCH":637,"BSTAR":0,"MEAN_MOTION_DOT":1.55e-6,"MEAN_MOTION_DDOT":0},{"OBJECT_NAME":"EUTELSAT 36D","OBJECT_ID":"2024-059A","EPOCH":"2026-03-14T13:48:49.146048","MEAN_MOTION":1.0027161,"ECCENTRICITY":2.629e-5,"INCLINATION":0.0102,"RA_OF_ASC_NODE":186.6351,"ARG_OF_PERICENTER":284.5204,"MEAN_ANOMALY":304.0787,"EPHEMERIS_TYPE":0,"CLASSIFICATION_TYPE":"U","NORAD_CAT_ID":59346,"ELEMENT_SET_NO":999,"REV_AT_EPOCH":719,"BSTAR":0,"MEAN_MOTION_DOT":1.55e-6,"MEAN_MOTION_DDOT":0},{"OBJECT_NAME":"PAKSAT-MM1","OBJECT_ID":"2024-104A","EPOCH":"2026-03-12T07:03:17.445024","MEAN_MOTION":1.0027277,"ECCENTRICITY":0.0002394,"INCLINATION":0.0097,"RA_OF_ASC_NODE":158.9645,"ARG_OF_PERICENTER":191.0481,"MEAN_ANOMALY":323.8856,"EPHEMERIS_TYPE":0,"CLASSIFICATION_TYPE":"U","NORAD_CAT_ID":59915,"ELEMENT_SET_NO":999,"REV_AT_EPOCH":655,"BSTAR":0,"MEAN_MOTION_DOT":1.54e-6,"MEAN_MOTION_DDOT":0},{"OBJECT_NAME":"ASTRA 1P (SES-24)","OBJECT_ID":"2024-115A","EPOCH":"2026-03-12T09:20:38.613120","MEAN_MOTION":1.00269354,"ECCENTRICITY":0.0004591,"INCLINATION":0.0525,"RA_OF_ASC_NODE":348.7446,"ARG_OF_PERICENTER":336.6618,"MEAN_ANOMALY":3.9688,"EPHEMERIS_TYPE":0,"CLASSIFICATION_TYPE":"U","NORAD_CAT_ID":60086,"ELEMENT_SET_NO":999,"REV_AT_EPOCH":622,"BSTAR":0,"MEAN_MOTION_DOT":1.2e-6,"MEAN_MOTION_DDOT":0},{"OBJECT_NAME":"GOES 19","OBJECT_ID":"2024-119A","EPOCH":"2026-03-14T13:17:07.184832","MEAN_MOTION":1.00271909,"ECCENTRICITY":0.00011049,"INCLINATION":0.0399,"RA_OF_ASC_NODE":331.225,"ARG_OF_PERICENTER":70.9444,"MEAN_ANOMALY":254.0878,"EPHEMERIS_TYPE":0,"CLASSIFICATION_TYPE":"U","NORAD_CAT_ID":60133,"ELEMENT_SET_NO":999,"REV_AT_EPOCH":601,"BSTAR":0,"MEAN_MOTION_DOT":-2.49e-6,"MEAN_MOTION_DDOT":0},{"OBJECT_NAME":"ZHONGXING-3A","OBJECT_ID":"2024-122A","EPOCH":"2026-03-09T14:19:27.045984","MEAN_MOTION":1.00269222,"ECCENTRICITY":0.0002372,"INCLINATION":0.0034,"RA_OF_ASC_NODE":91.8519,"ARG_OF_PERICENTER":339.1453,"MEAN_ANOMALY":52.6833,"EPHEMERIS_TYPE":0,"CLASSIFICATION_TYPE":"U","NORAD_CAT_ID":60179,"ELEMENT_SET_NO":999,"REV_AT_EPOCH":631,"BSTAR":0,"MEAN_MOTION_DOT":-3.11e-6,"MEAN_MOTION_DDOT":0},{"OBJECT_NAME":"TURKSAT 6A","OBJECT_ID":"2024-127A","EPOCH":"2026-03-14T13:50:33.977760","MEAN_MOTION":1.00272504,"ECCENTRICITY":0.00019942,"INCLINATION":0.038,"RA_OF_ASC_NODE":214.5135,"ARG_OF_PERICENTER":98.8249,"MEAN_ANOMALY":108.4721,"EPHEMERIS_TYPE":0,"CLASSIFICATION_TYPE":"U","NORAD_CAT_ID":60233,"ELEMENT_SET_NO":999,"REV_AT_EPOCH":606,"BSTAR":0,"MEAN_MOTION_DOT":1.45e-6,"MEAN_MOTION_DDOT":0},{"OBJECT_NAME":"HULIANWAN GAOGUI-02 (HG-02)","OBJECT_ID":"2024-135A","EPOCH":"2026-03-12T23:00:27.632160","MEAN_MOTION":1.00270018,"ECCENTRICITY":0.00078907,"INCLINATION":0.0414,"RA_OF_ASC_NODE":351.2013,"ARG_OF_PERICENTER":356.2626,"MEAN_ANOMALY":321.4127,"EPHEMERIS_TYPE":0,"CLASSIFICATION_TYPE":"U","NORAD_CAT_ID":60327,"ELEMENT_SET_NO":999,"REV_AT_EPOCH":653,"BSTAR":0,"MEAN_MOTION_DOT":-1.73e-6,"MEAN_MOTION_DDOT":0},{"OBJECT_NAME":"ZHONGXING-4A","OBJECT_ID":"2024-151A","EPOCH":"2026-03-14T14:12:24.383232","MEAN_MOTION":1.00270484,"ECCENTRICITY":0.00013752,"INCLINATION":1.5605,"RA_OF_ASC_NODE":271.8284,"ARG_OF_PERICENTER":102.3133,"MEAN_ANOMALY":129.3651,"EPHEMERIS_TYPE":0,"CLASSIFICATION_TYPE":"U","NORAD_CAT_ID":60606,"ELEMENT_SET_NO":999,"REV_AT_EPOCH":580,"BSTAR":0,"MEAN_MOTION_DOT":-3.65e-6,"MEAN_MOTION_DDOT":0},{"OBJECT_NAME":"HULIANWAN GAOGUI-03 (HG-03)","OBJECT_ID":"2024-181A","EPOCH":"2026-03-13T19:03:21.772800","MEAN_MOTION":1.00271087,"ECCENTRICITY":7.031e-5,"INCLINATION":0.0425,"RA_OF_ASC_NODE":356.0104,"ARG_OF_PERICENTER":104.1382,"MEAN_ANOMALY":279.9753,"EPHEMERIS_TYPE":0,"CLASSIFICATION_TYPE":"U","NORAD_CAT_ID":61503,"ELEMENT_SET_NO":999,"REV_AT_EPOCH":586,"BSTAR":0,"MEAN_MOTION_DOT":-2.41e-6,"MEAN_MOTION_DDOT":0},{"OBJECT_NAME":"DSN-3 (KIRAMEKI-3)","OBJECT_ID":"2024-198A","EPOCH":"2026-03-14T12:37:03.525600","MEAN_MOTION":1.00271558,"ECCENTRICITY":0.00010881,"INCLINATION":0.0211,"RA_OF_ASC_NODE":241.3339,"ARG_OF_PERICENTER":93.6552,"MEAN_ANOMALY":170.4705,"EPHEMERIS_TYPE":0,"CLASSIFICATION_TYPE":"U","NORAD_CAT_ID":61733,"ELEMENT_SET_NO":999,"REV_AT_EPOCH":497,"BSTAR":0,"MEAN_MOTION_DOT":-2.51e-6,"MEAN_MOTION_DDOT":0},{"OBJECT_NAME":"KOREASAT 6A","OBJECT_ID":"2024-206A","EPOCH":"2026-03-14T14:11:46.942656","MEAN_MOTION":1.00272407,"ECCENTRICITY":6.122e-5,"INCLINATION":0.0107,"RA_OF_ASC_NODE":160.7787,"ARG_OF_PERICENTER":198.8377,"MEAN_ANOMALY":141.5454,"EPHEMERIS_TYPE":0,"CLASSIFICATION_TYPE":"U","NORAD_CAT_ID":61910,"ELEMENT_SET_NO":999,"REV_AT_EPOCH":489,"BSTAR":0,"MEAN_MOTION_DOT":-3.63e-6,"MEAN_MOTION_DDOT":0},{"OBJECT_NAME":"OPTUS-X (ADS-01)","OBJECT_ID":"2024-212A","EPOCH":"2026-03-14T14:23:15.841824","MEAN_MOTION":1.00271826,"ECCENTRICITY":0.0001035,"INCLINATION":0.0359,"RA_OF_ASC_NODE":267.5719,"ARG_OF_PERICENTER":112.6501,"MEAN_ANOMALY":164.2301,"EPHEMERIS_TYPE":0,"CLASSIFICATION_TYPE":"U","NORAD_CAT_ID":62006,"ELEMENT_SET_NO":999,"REV_AT_EPOCH":481,"BSTAR":0,"MEAN_MOTION_DOT":-1.44e-6,"MEAN_MOTION_DDOT":0},{"OBJECT_NAME":"GSAT-N2 (GSAT-20)","OBJECT_ID":"2024-214A","EPOCH":"2026-03-14T13:58:03.260352","MEAN_MOTION":1.0026918,"ECCENTRICITY":5.294e-5,"INCLINATION":0.0612,"RA_OF_ASC_NODE":261.6784,"ARG_OF_PERICENTER":289.8069,"MEAN_ANOMALY":258.2738,"EPHEMERIS_TYPE":0,"CLASSIFICATION_TYPE":"U","NORAD_CAT_ID":62028,"ELEMENT_SET_NO":999,"REV_AT_EPOCH":494,"BSTAR":0,"MEAN_MOTION_DOT":-2.0e-7,"MEAN_MOTION_DDOT":0},{"OBJECT_NAME":"SXM-9","OBJECT_ID":"2024-234A","EPOCH":"2026-03-14T01:15:28.164384","MEAN_MOTION":1.00271617,"ECCENTRICITY":0.00039888,"INCLINATION":0.0099,"RA_OF_ASC_NODE":213.4738,"ARG_OF_PERICENTER":93.2336,"MEAN_ANOMALY":158.6682,"EPHEMERIS_TYPE":0,"CLASSIFICATION_TYPE":"U","NORAD_CAT_ID":62259,"ELEMENT_SET_NO":999,"REV_AT_EPOCH":462,"BSTAR":0,"MEAN_MOTION_DOT":-2.06e-6,"MEAN_MOTION_DDOT":0}]
